{"type": "FeatureCollection", "features": [{"type": "Feature", "properties": {"norad_id": 26766, "name": "INTELSAT 10 (IS-10)", "group": "intelsat", "lat": 8.462308664658583, "lon": 139.33192182180383, "alt_km": 36150.617527757444, "timestamp": "2025-12-13T18:50:04.095776+00:00", "meta": {"OBJECT_NAME": "INTELSAT 10 (IS-10)", "OBJECT_ID": "2001-019A", "EPOCH": "2025-12-12T13:59:22.280064", "MEAN_MOTION": 0.99078624, "ECCENTRICITY": 0.00077602, "INCLINATION": 8.6297, "RA_OF_ASC_NODE": 61.1594, "ARG_OF_PERICENTER": 225.253, "MEAN_ANOMALY": 144.4037, "EPHEMERIS_TYPE": 0, "CLASSIFICATION_TYPE": "U", "NORAD_CAT_ID": 26766, "ELEMENT_SET_NO": 999, "REV_AT_EPOCH": 4373, "BSTAR": 0, "MEAN_MOTION_DOT": -2.8e-06, "MEAN_MOTION_DDOT": 0}, "tle": {"line1": "1 26766U 01019A   25346.58289676 -.00000280  00000+0  00000+0 0  9998", "line2": "2 26766   8.6297  61.1594 0007760 225.2530 144.4037  0.99078624 43731"}}, "geometry": {"type": "Point", "coordinates": [139.33192182180383, 8.462308664658583]}}, {"type": "Feature", "properties": {"norad_id": 26900, "name": "INTELSAT 902 (IS-902)", "group": "intelsat", "lat": -4.954364961250475, "lon": -44.945076258178396, "alt_km": 35776.34362480756, "timestamp": "2025-12-13T18:50:04.095802+00:00", "meta": {"OBJECT_NAME": "INTELSAT 902 (IS-902)", "OBJECT_ID": "2001-039A", "EPOCH": "2025-12-11T04:42:42.842016", "MEAN_MOTION": 1.00272526, "ECCENTRICITY": 0.00044264, "INCLINATION": 5.6424, "RA_OF_ASC_NODE": 74.0881, "ARG_OF_PERICENTER": 184.9809, "MEAN_ANOMALY": 201.6699, "EPHEMERIS_TYPE": 0, "CLASSIFICATION_TYPE": "U", "NORAD_CAT_ID": 26900, "ELEMENT_SET_NO": 999, "REV_AT_EPOCH": 8881, "BSTAR": 0, "MEAN_MOTION_DOT": -2.78e-06, "MEAN_MOTION_DDOT": 0}, "tle": {"line1": "1 26900U 01039A   25345.19632919 -.00000278  00000+0  00000+0 0  9995", "line2": "2 26900   5.6424  74.0881 0004426 184.9809 201.6699  1.00272526 88816"}}, "geometry": {"type": "Point", "coordinates": [-44.945076258178396, -4.954364961250475]}}, {"type": "Feature", "properties": {"norad_id": 27380, "name": "INTELSAT 904 (IS-904)", "group": "intelsat", "lat": -6.40405475692629, "lon": -26.311629032061987, "alt_km": 35781.28316134516, "timestamp": "2025-12-13T18:50:04.095817+00:00", "meta": {"OBJECT_NAME": "INTELSAT 904 (IS-904)", "OBJECT_ID": "2002-007A", "EPOCH": "2025-12-13T03:01:39.174240", "MEAN_MOTION": 1.00272668, "ECCENTRICITY": 0.00015319, "INCLINATION": 6.4559, "RA_OF_ASC_NODE": 71.4281, "ARG_OF_PERICENTER": 230.0297, "MEAN_ANOMALY": 154.5144, "EPHEMERIS_TYPE": 0, "CLASSIFICATION_TYPE": "U", "NORAD_CAT_ID": 27380, "ELEMENT_SET_NO": 999, "REV_AT_EPOCH": 4990, "BSTAR": 0, "MEAN_MOTION_DOT": -2.14e-06, "MEAN_MOTION_DDOT": 0}, "tle": {"line1": "1 27380U 02007A   25347.12614785 -.00000214  00000+0  00000+0 0  9990", "line2": "2 27380   6.4559  71.4281 0001531 230.0297 154.5144  1.00272668 49905"}}, "geometry": {"type": "Point", "coordinates": [-26.311629032061987, -6.40405475692629]}}, {"type": "Feature", "properties": {"norad_id": 27426, "name": "DIRECTV 5 (TEMPO 1)", "group": "intelsat", "lat": 0.1757190207150815, "lon": -104.90190632502399, "alt_km": 35772.2386177097, "timestamp": "2025-12-13T18:50:04.095831+00:00", "meta": {"OBJECT_NAME": "DIRECTV 5 (TEMPO 1)", "OBJECT_ID": "2002-023A", "EPOCH": "2025-12-13T06:13:41.721024", "MEAN_MOTION": 1.00272197, "ECCENTRICITY": 0.00034359, "INCLINATION": 4.4037, "RA_OF_ASC_NODE": 77.6472, "ARG_OF_PERICENTER": 197.0253, "MEAN_ANOMALY": 150.8215, "EPHEMERIS_TYPE": 0, "CLASSIFICATION_TYPE": "U", "NORAD_CAT_ID": 27426, "ELEMENT_SET_NO": 999, "REV_AT_EPOCH": 8625, "BSTAR": 0, "MEAN_MOTION_DOT": -4.4e-07, "MEAN_MOTION_DDOT": 0}, "tle": {"line1": "1 27426U 02023A   25347.25951066 -.00000044  00000+0  00000+0 0  9990", "line2": "2 27426   4.4037  77.6472 0003435 197.0253 150.8215  1.00272197 86258"}}, "geometry": {"type": "Point", "coordinates": [-104.90190632502399, 0.1757190207150815]}}, {"type": "Feature", "properties": {"norad_id": 27438, "name": "INTELSAT 905 (IS-905)", "group": "intelsat", "lat": 2.5389607775841214, "lon": -131.85231776019802, "alt_km": 35776.66662967155, "timestamp": "2025-12-13T18:50:04.095844+00:00", "meta": {"OBJECT_NAME": "INTELSAT 905 (IS-905)", "OBJECT_ID": "2002-027A", "EPOCH": "2025-12-12T10:15:53.786304", "MEAN_MOTION": 1.00273335, "ECCENTRICITY": 0.00027053, "INCLINATION": 6.2853, "RA_OF_ASC_NODE": 72.0601, "ARG_OF_PERICENTER": 197.9433, "MEAN_ANOMALY": 188.1472, "EPHEMERIS_TYPE": 0, "CLASSIFICATION_TYPE": "U", "NORAD_CAT_ID": 27438, "ELEMENT_SET_NO": 999, "REV_AT_EPOCH": 4949, "BSTAR": 0, "MEAN_MOTION_DOT": 1.03e-06, "MEAN_MOTION_DDOT": 0}, "tle": {"line1": "1 27438U 02027A   25346.42770586  .00000103  00000+0  00000+0 0  9996", "line2": "2 27438   6.2853  72.0601 0002705 197.9433 188.1472  1.00273335 49497"}}, "geometry": {"type": "Point", "coordinates": [-131.85231776019802, 2.5389607775841214]}}, {"type": "Feature", "properties": {"norad_id": 27445, "name": "GALAXY 3C (G-3C)", "group": "intelsat", "lat": -0.5792528616917495, "lon": -89.64279414314042, "alt_km": 35787.26051214878, "timestamp": "2025-12-13T18:50:04.095857+00:00", "meta": {"OBJECT_NAME": "GALAXY 3C (G-3C)", "OBJECT_ID": "2002-030A", "EPOCH": "2025-12-13T04:26:16.067616", "MEAN_MOTION": 1.00271553, "ECCENTRICITY": 0.00010934, "INCLINATION": 3.2656, "RA_OF_ASC_NODE": 80.5019, "ARG_OF_PERICENTER": 87.1263, "MEAN_ANOMALY": 246.1952, "EPHEMERIS_TYPE": 0, "CLASSIFICATION_TYPE": "U", "NORAD_CAT_ID": 27445, "ELEMENT_SET_NO": 999, "REV_AT_EPOCH": 4462, "BSTAR": 0, "MEAN_MOTION_DOT": -1.39e-06, "MEAN_MOTION_DDOT": 0}, "tle": {"line1": "1 27445U 02030A   25347.18490819 -.00000139  00000+0  00000+0 0  9990", "line2": "2 27445   3.2656  80.5019 0001093  87.1263 246.1952  1.00271553 44628"}}, "geometry": {"type": "Point", "coordinates": [-89.64279414314042, -0.5792528616917495]}}, {"type": "Feature", "properties": {"norad_id": 27513, "name": "INTELSAT 906 (IS-906)", "group": "intelsat", "lat": -0.5222637951804586, "lon": 69.39996436349165, "alt_km": 35811.00918293824, "timestamp": "2025-12-13T18:50:04.095869+00:00", "meta": {"OBJECT_NAME": "INTELSAT 906 (IS-906)", "OBJECT_ID": "2002-041A", "EPOCH": "2025-12-13T05:11:41.718048", "MEAN_MOTION": 1.00271579, "ECCENTRICITY": 0.00062004, "INCLINATION": 5.3302, "RA_OF_ASC_NODE": 75.2255, "ARG_OF_PERICENTER": 193.1726, "MEAN_ANOMALY": 315.8052, "EPHEMERIS_TYPE": 0, "CLASSIFICATION_TYPE": "U", "NORAD_CAT_ID": 27513, "ELEMENT_SET_NO": 999, "REV_AT_EPOCH": 8516, "BSTAR": 0, "MEAN_MOTION_DOT": 2.5e-07, "MEAN_MOTION_DDOT": 0}, "tle": {"line1": "1 27513U 02041A   25347.21645507  .00000025  00000+0  00000+0 0  9991", "line2": "2 27513   5.3302  75.2255 0006200 193.1726 315.8052  1.00271579 85162"}}, "geometry": {"type": "Point", "coordinates": [69.39996436349165, -0.5222637951804586]}}, {"type": "Feature", "properties": {"norad_id": 27954, "name": "GALAXY 13 (HORIZONS-1)", "group": "intelsat", "lat": 0.7139899406492736, "lon": -144.79425075967075, "alt_km": 35779.301891693765, "timestamp": "2025-12-13T18:50:04.095882+00:00", "meta": {"OBJECT_NAME": "GALAXY 13 (HORIZONS-1)", "OBJECT_ID": "2003-044A", "EPOCH": "2025-12-13T04:21:38.702880", "MEAN_MOTION": 1.00271742, "ECCENTRICITY": 0.00020548, "INCLINATION": 0.9368, "RA_OF_ASC_NODE": 86.4626, "ARG_OF_PERICENTER": 169.0831, "MEAN_ANOMALY": 101.9779, "EPHEMERIS_TYPE": 0, "CLASSIFICATION_TYPE": "U", "NORAD_CAT_ID": 27954, "ELEMENT_SET_NO": 999, "REV_AT_EPOCH": 4470, "BSTAR": 0, "MEAN_MOTION_DOT": 1.46e-06, "MEAN_MOTION_DDOT": 0}, "tle": {"line1": "1 27954U 03044A   25347.18169795  .00000146  00000+0  00000+0 0  9994", "line2": "2 27954   0.9368  86.4626 0002054 169.0831 101.9779  1.00271742 44709"}}, "geometry": {"type": "Point", "coordinates": [-144.79425075967075, 0.7139899406492736]}}, {"type": "Feature", "properties": {"norad_id": 28358, "name": "INTELSAT 10-02", "group": "intelsat", "lat": -0.008167786981832287, "lon": 4.26666274750945, "alt_km": 35784.781151624215, "timestamp": "2025-12-13T18:50:04.095894+00:00", "meta": {"OBJECT_NAME": "INTELSAT 10-02", "OBJECT_ID": "2004-022A", "EPOCH": "2025-12-13T04:53:05.999424", "MEAN_MOTION": 1.0027108, "ECCENTRICITY": 0.00010711, "INCLINATION": 0.0235, "RA_OF_ASC_NODE": 65.5533, "ARG_OF_PERICENTER": 227.9966, "MEAN_ANOMALY": 220.8997, "EPHEMERIS_TYPE": 0, "CLASSIFICATION_TYPE": "U", "NORAD_CAT_ID": 28358, "ELEMENT_SET_NO": 999, "REV_AT_EPOCH": 7869, "BSTAR": 0, "MEAN_MOTION_DOT": 3e-08, "MEAN_MOTION_DDOT": 0}, "tle": {"line1": "1 28358U 04022A   25347.20354166  .00000003  00000+0  00000+0 0  9993", "line2": "2 28358   0.0235  65.5533 0001071 227.9966 220.8997  1.00271080 78691"}}, "geometry": {"type": "Point", "coordinates": [4.26666274750945, -0.008167786981832287]}}, {"type": "Feature", "properties": {"norad_id": 28626, "name": "XM-3 (RHYTHM)", "group": "intelsat", "lat": 0.10937216537509833, "lon": 114.59581208467785, "alt_km": 36163.651697721216, "timestamp": "2025-12-13T18:50:04.095907+00:00", "meta": {"OBJECT_NAME": "XM-3 (RHYTHM)", "OBJECT_ID": "2005-008A", "EPOCH": "2025-12-13T05:25:02.938944", "MEAN_MOTION": 0.98952253, "ECCENTRICITY": 0.00015841, "INCLINATION": 0.1761, "RA_OF_ASC_NODE": 81.5909, "ARG_OF_PERICENTER": 271.7006, "MEAN_ANOMALY": 282.1474, "EPHEMERIS_TYPE": 0, "CLASSIFICATION_TYPE": "U", "NORAD_CAT_ID": 28626, "ELEMENT_SET_NO": 999, "REV_AT_EPOCH": 4075, "BSTAR": 0, "MEAN_MOTION_DOT": -1.33e-06, "MEAN_MOTION_DDOT": 0}, "tle": {"line1": "1 28626U 05008A   25347.22572846 -.00000133  00000+0  00000+0 0  9990", "line2": "2 28626   0.1761  81.5909 0001584 271.7006 282.1474  0.98952253 40751"}}, "geometry": {"type": "Point", "coordinates": [114.59581208467785, 0.10937216537509833]}}]}